*******************************************************************************
 Revised: July 31, 2013             Moon / (Earth)                          301
 
 GEOPHYSICAL DATA (updated 2018-Aug-15):
  Vol. mean radius, km  = 1737.53+-0.03    Mass, x10^22 kg       =    7.349
  Radius (gravity), km  = 1738.0           Surface emissivity    =    0.92
  Radius (IAU), km      = 1737.4           GM, km^3/s^2          = 4902.800066
  Density, g/cm^3       =    3.3437        GM 1-sigma, km^3/s^2  =  +-0.0001  
  V(1,0)                =   +0.21          Surface accel., m/s^2 =    1.62
  Earth/Moon mass ratio = 81.3005690769    Farside crust. thick. = ~80 - 90 km
  Mean crustal density  = 2.97+-.07 g/cm^3 Nearside crust. thick.= 58+-8 km 
  Heat flow, Apollo 15  = 3.1+-.6 mW/m^2   Mean angular diameter = 31'05.2"
  Heat flow, Apollo 17  = 2.2+-.5 mW/m^2   Sid. rot. rate, rad/s = 0.0000026617
  Geometric Albedo      = 0.12             Mean solar day        = 29.5306 d
  Obliquity to orbit    = 6.67 deg         Orbit period          = 27.321582 d
  Semi-major axis, a    = 384400 km        Eccentricity          = 0.05490
  Mean motion, rad/s    = 2.6616995x10^-6  Inclination           = 5.145 deg
  Apsidal period        = 3231.50 d        Nodal period          = 6798.38 d
                                 Perihelion  Aphelion    Mean
  Solar Constant (W/m^2)         1414+-7     1323+-7     1368+-7
  Maximum Planetary IR (W/m^2)   1314        1226        1268
  Minimum Planetary IR (W/m^2)      5.2         5.2         5.2
********************************************************************************


*******************************************************************************
Ephemeris / WWW_USER Fri Nov 26 17:09:07 2021 Pasadena, USA      / Horizons    
*******************************************************************************
Target body name: Moon (301)                      {source: DE441}
Center body name: Earth (399)                     {source: DE441}
Center-site name: GEOCENTRIC
*******************************************************************************
Start time      : A.D. 1970-Jan-01 00:00:00.0000 UT      
Stop  time      : A.D. 2050-Jan-01 00:00:00.0000 UT      
Step-size       : 43200 minutes
*******************************************************************************
Target pole/equ : MOON_ME                         {East-longitude positive}
Target radii    : 1737.4 x 1737.4 x 1737.4 km     {Equator, meridian, pole}    
Center geodetic : 0.00000000,0.00000000,0.0000000 {E-lon(deg),Lat(deg),Alt(km)}
Center cylindric: 0.00000000,0.00000000,0.0000000 {E-lon(deg),Dxy(km),Dz(km)}
Center pole/equ : ITRF93                          {East-longitude positive}
Center radii    : 6378.1 x 6378.1 x 6356.8 km     {Equator, meridian, pole}    
Target primary  : Earth
Vis. interferer : MOON (R_eq= 1737.400) km        {source: DE441}
Rel. light bend : Sun, EARTH                      {source: DE441}
Rel. lght bnd GM: 1.3271E+11, 3.9860E+05 km^3/s^2                              
Atmos refraction: NO (AIRLESS)
RA format       : DEG
Time format     : BOTH
EOP file        : eop.211125.p220216                                           
EOP coverage    : DATA-BASED 1962-JAN-20 TO 2021-NOV-25. PREDICTS-> 2022-FEB-15
Units conversion: 1 au= 149597870.700 km, c= 299792.458 km/s, 1 day= 86400.0 s 
Table cut-offs 1: Elevation (-90.0deg=NO ),Airmass (>38.000=NO), Daylight (NO )
Table cut-offs 2: Solar elongation (  0.0,180.0=NO ),Local Hour Angle( 0.0=NO )
Table cut-offs 3: RA/DEC angular rate (     0.0=NO )                           
*******************************************************************************
 Date__(UT)__HR:MN Date_________JDUT     N.Pole-RA  N.Pole-DC
*************************************************************
$$SOE
 2043-Mar-09 00:00 2467317.500000000     269.26000   68.08637
 2043-Apr-08 00:00 2467347.500000000     269.38936   68.07807
 2043-May-08 00:00 2467377.500000000     269.53869   68.07602
 2043-Jun-07 00:00 2467407.500000000     269.68825   68.08108
 2043-Jul-07 00:00 2467437.500000000     269.82986   68.08910
 2043-Aug-06 00:00 2467467.500000000     269.96729   68.09874
 2043-Sep-05 00:00 2467497.500000000     270.09726   68.11231
 2043-Oct-05 00:00 2467527.500000000     270.20504   68.12904
 2043-Nov-04 00:00 2467557.500000000     270.28078   68.14171
 2043-Dec-04 00:00 2467587.500000000     270.33560   68.14109
 2044-Jan-03 00:00 2467617.500000000     270.39860   68.12421
 2044-Feb-02 00:00 2467647.500000000     270.49451   68.09776
 2044-Mar-03 00:00 2467677.500000000     270.62401   68.07214
 2044-Apr-02 00:00 2467707.500000000     270.77007   68.05237
 2044-May-02 00:00 2467737.500000000     270.92144   68.03741
 2044-Jun-01 00:00 2467767.500000000     271.07704   68.02766
 2044-Jul-01 00:00 2467797.500000000     271.22757   68.02631
 2044-Jul-31 00:00 2467827.500000000     271.35292   68.03208
 2044-Aug-30 00:00 2467857.500000000     271.44192   68.03705
 2044-Sep-29 00:00 2467887.500000000     271.50351   68.03276
 2044-Oct-29 00:00 2467917.500000000     271.55884   68.01594
 2044-Nov-28 00:00 2467947.500000000     271.62623   67.98936
 2044-Dec-28 00:00 2467977.500000000     271.71152   67.95834
 2045-Jan-27 00:00 2468007.500000000     271.81027   67.92618
 2045-Feb-26 00:00 2468037.500000000     271.91997   67.89299
 2045-Mar-28 00:00 2468067.500000000     272.04527   67.86041
 2045-Apr-27 00:00 2468097.500000000     272.18334   67.83420
 2045-May-27 00:00 2468127.500000000     272.31394   67.81740
 2045-Jun-26 00:00 2468157.500000000     272.41905   67.80475
 2045-Jul-26 00:00 2468187.500000000     272.50179   67.78881
 2045-Aug-25 00:00 2468217.500000000     272.57652   67.76784
 2045-Sep-24 00:00 2468247.500000000     272.64874   67.74494
 2045-Oct-24 00:00 2468277.500000000     272.71112   67.72148
 2045-Nov-23 00:00 2468307.500000000     272.75770   67.69355
 2045-Dec-23 00:00 2468337.500000000     272.79828   67.65582
 2046-Jan-22 00:00 2468367.500000000     272.85416   67.60866
 2046-Feb-21 00:00 2468397.500000000     272.93725   67.55977
 2046-Mar-23 00:00 2468427.500000000     273.03724   67.51690
 2046-Apr-22 00:00 2468457.500000000     273.13599   67.48068
 2046-May-22 00:00 2468487.500000000     273.22803   67.44771
 2046-Jun-21 00:00 2468517.500000000     273.31686   67.41768
 2046-Jul-21 00:00 2468547.500000000     273.39856   67.39322
 2046-Aug-20 00:00 2468577.500000000     273.45837   67.37414
 2046-Sep-19 00:00 2468607.500000000     273.48417   67.35394
 2046-Oct-19 00:00 2468637.500000000     273.48216   67.32318
 2046-Nov-18 00:00 2468667.500000000     273.47738   67.27728
 2046-Dec-18 00:00 2468697.500000000     273.49407   67.22108
 2047-Jan-17 00:00 2468727.500000000     273.53570   67.16351
 2047-Feb-16 00:00 2468757.500000000     273.59172   67.10883
 2047-Mar-18 00:00 2468787.500000000     273.65815   67.05746
 2047-Apr-17 00:00 2468817.500000000     273.73506   67.01271
 2047-May-17 00:00 2468847.500000000     273.81020   66.97915
 2047-Jun-16 00:00 2468877.500000000     273.86217   66.95560
 2047-Jul-16 00:00 2468907.500000000     273.87854   66.93428
 2047-Aug-15 00:00 2468937.500000000     273.86519   66.90643
 2047-Sep-14 00:00 2468967.500000000     273.84037   66.86796
 2047-Oct-14 00:00 2468997.500000000     273.82065   66.82089
 2047-Nov-13 00:00 2469027.500000000     273.81074   66.76968
 2047-Dec-13 00:00 2469057.500000000     273.80741   66.71618
 2048-Jan-12 00:00 2469087.500000000     273.81329   66.65988
 2048-Feb-11 00:00 2469117.500000000     273.83717   66.60402
 2048-Mar-12 00:00 2469147.500000000     273.87497   66.55615
 2048-Apr-11 00:00 2469177.500000000     273.90552   66.51915
 2048-May-11 00:00 2469207.500000000     273.91244   66.48739
 2048-Jun-10 00:00 2469237.500000000     273.89942   66.45354
 2048-Jul-10 00:00 2469267.500000000     273.88058   66.41602
 2048-Aug-09 00:00 2469297.500000000     273.86170   66.37858
 2048-Sep-08 00:00 2469327.500000000     273.83430   66.34363
 2048-Oct-08 00:00 2469357.500000000     273.78871   66.30753
 2048-Nov-07 00:00 2469387.500000000     273.73101   66.26387
 2048-Dec-07 00:00 2469417.500000000     273.68088   66.21181
 2049-Jan-06 00:00 2469447.500000000     273.64962   66.15788
 2049-Feb-05 00:00 2469477.500000000     273.63005   66.10798
 2049-Mar-07 00:00 2469507.500000000     273.61185   66.06204
 2049-Apr-06 00:00 2469537.500000000     273.59501   66.01811
 2049-May-06 00:00 2469567.500000000     273.58409   65.97771
 2049-Jun-05 00:00 2469597.500000000     273.57497   65.94515
 2049-Jul-05 00:00 2469627.500000000     273.55140   65.92206
 2049-Aug-04 00:00 2469657.500000000     273.49657   65.90323
 2049-Sep-03 00:00 2469687.500000000     273.40995   65.87890
 2049-Oct-03 00:00 2469717.500000000     273.31050   65.84298
 2049-Nov-02 00:00 2469747.500000000     273.21835   65.79786
 2049-Dec-02 00:00 2469777.500000000     273.13843   65.74877
 2050-Jan-01 00:00 2469807.500000000     273.07062   65.69716
